      2.10          N: GNSS NAV DATA                        RINEX VERSION / TYPE
fic2rin                                 08/22/2018 00:31:11 PGM / RUN BY / DATE
                                                            END OF HEADER
24 18  8 21 23 59 44.0-5.431333556771e-05-5.684341886081e-13 0.000000000000e+00
    1.300000000000e+01 7.500000000000e+00 5.066282459571e-09-5.619033086139e-02
    3.073364496231e-07 7.133904146031e-03 8.419156074524e-06 5.153633661270e+03
    2.591840000000e+05 2.980232238770e-08-1.159226911185e+00 5.587935447693e-08
    9.405983685432e-01 2.027500000000e+02 5.321913663523e-01-8.321418049035e-09
   -6.110968832095e-10 1.000000000000e+00 2.015000000000e+03 0.000000000000e+00
    2.400000000000e+00 0.000000000000e+00 2.793967723846e-09 1.300000000000e+01
    2.570760000000e+05 4.000000000000e+00
19 18  8 21 23 59 44.0-4.097078926861e-04 3.296918293927e-12 0.000000000000e+00
    1.000000000000e+00-1.096875000000e+01 4.124457514496e-09-1.724616511577e+00
   -2.812594175339e-07 9.774182341062e-03 2.156943082809e-06 5.153722986221e+03
    2.591840000000e+05 1.303851604462e-07 1.076432721629e+00 7.078051567078e-08
    9.805537670631e-01 3.415625000000e+02 1.265007247875e+00-8.067121742287e-09
    1.103617398666e-10 1.000000000000e+00 2.015000000000e+03 0.000000000000e+00
    2.400000000000e+00 0.000000000000e+00-1.536682248116e-08 1.000000000000e+00
    2.571060000000e+05 4.000000000000e+00
